IDEFIX & ARIANE 42P R/B 
1 27422U 02021B   26064.72018144  .00000417  00000+0  17513-3 0  9998
2 27422  98.5866   3.3740 0011343 194.0725 166.0144 14.31022919243450
AQUA                    
1 27424U 02022A   26064.92331410  .00001342  00000+0  27765-3 0  9995
2 27424  98.4170  32.2197 0000599  63.3663  13.6411 14.61965399268188
CZ-4B R/B               
1 27432U 02024C   26064.76753016  .00000073  00000+0  60568-4 0  9997
2 27432  98.8846 118.1938 0050667  35.2596  74.8182 14.14546933228684
MIDORI II (ADEOS-II)    
1 27597U 02056A   26064.88343650  .00000377  00000+0  16594-3 0  9992
2 27597  98.7765  23.3348 0001730  47.9802 312.1527 14.29281347209753
H-2A R/B                
1 27601U 02056E   26064.86781072  .00000386  00000+0  14985-3 0  9992
2 27601  98.3197  25.3790 0070269 172.0112 242.7391 14.33757912213566
CZ-4B R/B               
1 28059U 03049C   26064.94512384  .00000485  00000+0  12293-3 0  9990
2 28059  98.6876  59.7030 0047125 242.5758 117.0641 14.55015715186050
CZ-2C R/B               
1 28222U 04012C   26064.70687254  .00060471  00000+0  63753-3 0  9994
2 28222  97.7239 129.6238 0013260 325.7396  34.3005 15.63957570203652
SL-16 R/B               
1 28353U 04021B   26064.92138566 -.00000203  00000+0 -80854-4 0  9991
2 28353  70.9992 240.4008 0003822  16.5605 343.5641 14.14599085122305
CZ-4B R/B               
1 28415U 04035C   26064.98264374  .00009280  00000+0  32749-3 0  9999
2 28415  97.3498  99.2692 0031378 345.0282  15.0026 15.28982464179342
CZ-2C R/B               
1 28480U 04046B   26064.69914945  .00000160  00000+0  74447-4 0  9997
2 28480  98.1986 339.9313 0139651 166.2060 194.3000 14.26990485107937
ARIANE 5 R/B            
1 28499U 04049H   26064.92740592  .00000939  00000+0  10979-3 0  9994
2 28499  98.2620 233.2437 0084204   4.1334 356.0557 14.85257079145232
CZ-2D R/B               
1 28738U 05024B   26064.98885644  .00042575  00000+0  53104-3 0  9997
2 28738  97.3594  79.9995 0006354  56.6913 303.4952 15.59754184139203
